start=new Date('2023-06-15T00:00:00.000Z').valueOf();
sats=[{"MEAN_MOTION_DDOT":"0.0000000000000","MEAN_ANOMALY":"270.8838","BSTAR":"-0.00002214600000","ECCENTRICITY":"0.00013230","TLE_LINE2":"2 51753  53.2173 115.6673 0001323  89.2305 270.8838 15.08853122 72829","MEAN_ELEMENT_THEORY":"SGP4","MEAN_MOTION_DOT":"-0.00000640","SEMIMAJOR_AXIS":"6917.840","REV_AT_EPOCH":"7282","RCS_SIZE":"LARGE","NORAD_CAT_ID":"51753","MEAN_MOTION":"15.08853122","APOAPSIS":"540.621","FILE":"3932965","COUNTRY_CODE":"US","ARG_OF_PERICENTER":"89.2305","EPOCH":"2023-06-14T06:35:04.027488","PERIAPSIS":"538.790","TIME_SYSTEM":"UTC","OBJECT_NAME":"STARLINK-3507","SITE":"AFETR","RA_OF_ASC_NODE":"115.6673","EPHEMERIS_TYPE":"0","REF_FRAME":"TEME","INCLINATION":"53.2173","LAUNCH_DATE":"2022-02-21","OBJECT_TYPE":"PAYLOAD","CLASSIFICATION_TYPE":"U","ELEMENT_SET_NO":"999","GP_ID":"233914317","OBJECT_ID":"2022-016AR","CENTER_NAME":"EARTH","DECAY_DATE":null,"PERIOD":"95.437","TLE_LINE1":"1 51753U 22016AR  23165.27435217 -.00000640  00000-0 -22146-4 0  9991"},{"MEAN_MOTION":"15.08841482","APOAPSIS":"540.457","FILE":"3932965","COUNTRY_CODE":"US","ARG_OF_PERICENTER":"93.3621","EPOCH":"2023-06-14T07:17:26.094336","REV_AT_EPOCH":"7283","NORAD_CAT_ID":"51754","RCS_SIZE":"LARGE","BSTAR":"0.00006728400000","ECCENTRICITY":"0.00010350","TLE_LINE2":"2 51754  53.2168 115.2932 0001035  93.3621 266.7490 15.08841482 72830","MEAN_ELEMENT_THEORY":"SGP4","MEAN_MOTION_DOT":"0.00000783","SEMIMAJOR_AXIS":"6917.876","MEAN_MOTION_DDOT":"0.0000000000000","MEAN_ANOMALY":"266.7490","OBJECT_ID":"2022-016AS","GP_ID":"233915568","CENTER_NAME":"EARTH","DECAY_DATE":null,"PERIOD":"95.437","TLE_LINE1":"1 51754U 22016AS  23165.30377424  .00000783  00000-0  67284-4 0  9999","EPHEMERIS_TYPE":"0","REF_FRAME":"TEME","INCLINATION":"53.2168","LAUNCH_DATE":"2022-02-21","OBJECT_TYPE":"PAYLOAD","ELEMENT_SET_NO":"999","CLASSIFICATION_TYPE":"U","PERIAPSIS":"539.025","TIME_SYSTEM":"UTC","OBJECT_NAME":"STARLINK-3457","SITE":"AFETR","RA_OF_ASC_NODE":"115.2932"},{"EPOCH":"2023-06-14T03:08:25.430496","ARG_OF_PERICENTER":"81.9485","FILE":"3932965","APOAPSIS":"540.650","MEAN_MOTION":"15.08841345","COUNTRY_CODE":"US","REV_AT_EPOCH":"7280","NORAD_CAT_ID":"51755","RCS_SIZE":"LARGE","MEAN_ELEMENT_THEORY":"SGP4","TLE_LINE2":"2 51755  53.2174 116.3126 0001314  81.9485 278.1656 15.08841345 72802","SEMIMAJOR_AXIS":"6917.876","MEAN_MOTION_DOT":"0.00000874","ECCENTRICITY":"0.00013140","BSTAR":"0.00007298800000","MEAN_MOTION_DDOT":"0.0000000000000","MEAN_ANOMALY":"278.1656","PERIOD":"95.437","TLE_LINE1":"1 51755U 22016AT  23165.13084989  .00000874  00000-0  72988-4 0  9990","CENTER_NAME":"EARTH","OBJECT_ID":"2022-016AT","GP_ID":"233915316","DECAY_DATE":null,"LAUNCH_DATE":"2022-02-21","OBJECT_TYPE":"PAYLOAD","INCLINATION":"53.2174","CLASSIFICATION_TYPE":"U","ELEMENT_SET_NO":"999","EPHEMERIS_TYPE":"0","REF_FRAME":"TEME","SITE":"AFETR","RA_OF_ASC_NODE":"116.3126","PERIAPSIS":"538.832","OBJECT_NAME":"STARLINK-3460","TIME_SYSTEM":"UTC"},{"NORAD_CAT_ID":"51756","RCS_SIZE":"LARGE","REV_AT_EPOCH":"7283","EPOCH":"2023-06-14T07:12:11.138688","ARG_OF_PERICENTER":"98.2643","COUNTRY_CODE":"US","APOAPSIS":"540.611","FILE":"3932965","MEAN_MOTION":"15.08833256","MEAN_ANOMALY":"261.8487","MEAN_MOTION_DDOT":"0.0000000000000","SEMIMAJOR_AXIS":"6917.901","MEAN_MOTION_DOT":"0.00001135","MEAN_ELEMENT_THEORY":"SGP4","TLE_LINE2":"2 51756  53.2155 115.5530 0001221  98.2643 261.8487 15.08833256 72832","ECCENTRICITY":"0.00012210","BSTAR":"0.00008939200000","TLE_LINE1":"1 51756U 22016AU  23165.30012892  .00001135  00000-0  89392-4 0  9992","PERIOD":"95.438","DECAY_DATE":null,"CENTER_NAME":"EARTH","GP_ID":"233914567","OBJECT_ID":"2022-016AU","RA_OF_ASC_NODE":"115.5530","SITE":"AFETR","OBJECT_NAME":"STARLINK-3513","TIME_SYSTEM":"UTC","PERIAPSIS":"538.921","ELEMENT_SET_NO":"999","CLASSIFICATION_TYPE":"U","LAUNCH_DATE":"2022-02-21","OBJECT_TYPE":"PAYLOAD","INCLINATION":"53.2155","REF_FRAME":"TEME","EPHEMERIS_TYPE":"0"},{"MEAN_MOTION_DDOT":"0.0000000000000","MEAN_ANOMALY":"278.5060","ECCENTRICITY":"0.00011960","BSTAR":"0.00004909800000","MEAN_ELEMENT_THEORY":"SGP4","TLE_LINE2":"2 51757  53.2162 115.8739 0001196  81.6068 278.5060 15.08838120 72829","SEMIMAJOR_AXIS":"6917.886","MEAN_MOTION_DOT":"0.00000494","REV_AT_EPOCH":"7282","RCS_SIZE":"LARGE","NORAD_CAT_ID":"51757","FILE":"3932965","APOAPSIS":"540.579","MEAN_MOTION":"15.08838120","COUNTRY_CODE":"US","EPOCH":"2023-06-14T05:32:52.486656","ARG_OF_PERICENTER":"81.6068","PERIAPSIS":"538.924","OBJECT_NAME":"STARLINK-3459","TIME_SYSTEM":"UTC","RA_OF_ASC_NODE":"115.8739","SITE":"AFETR","EPHEMERIS_TYPE":"0","REF_FRAME":"TEME","OBJECT_TYPE":"PAYLOAD","LAUNCH_DATE":"2022-02-21","INCLINATION":"53.2162","ELEMENT_SET_NO":"999","CLASSIFICATION_TYPE":"U","CENTER_NAME":"EARTH","OBJECT_ID":"2022-016AV","GP_ID":"233914817","DECAY_DATE":null,"PERIOD":"95.438","TLE_LINE1":"1 51757U 22016AV  23165.23116304  .00000494  00000-0  49098-4 0  9994"},{"EPOCH":"2023-06-14T19:39:21.688992","ARG_OF_PERICENTER":"97.4976","COUNTRY_CODE":"US","FILE":"3933215","APOAPSIS":"540.538","MEAN_MOTION":"15.08834697","RCS_SIZE":"LARGE","NORAD_CAT_ID":"51758","REV_AT_EPOCH":"7405","SEMIMAJOR_AXIS":"6917.897","MEAN_MOTION_DOT":"0.00000425","MEAN_ELEMENT_THEORY":"SGP4","TLE_LINE2":"2 51758  53.2192 113.1851 0001123  97.4976 262.6144 15.08834697 74051","ECCENTRICITY":"0.00011230","BSTAR":"0.00004479200000","MEAN_ANOMALY":"262.6144","MEAN_MOTION_DDOT":"0.0000000000000","TLE_LINE1":"1 51758U 22016AW  23165.81900103  .00000425  00000-0  44792-4 0  9997","PERIOD":"95.438","DECAY_DATE":null,"CENTER_NAME":"EARTH","GP_ID":"233947694","OBJECT_ID":"2022-016AW","ELEMENT_SET_NO":"999","CLASSIFICATION_TYPE":"U","OBJECT_TYPE":"PAYLOAD","LAUNCH_DATE":"2022-02-21","INCLINATION":"53.2192","REF_FRAME":"TEME","EPHEMERIS_TYPE":"0","SITE":"AFETR","RA_OF_ASC_NODE":"113.1851","OBJECT_NAME":"STARLINK-3458","TIME_SYSTEM":"UTC","PERIAPSIS":"538.985"},{"RA_OF_ASC_NODE":"112.9094","SITE":"AFETR","PERIAPSIS":"539.025","TIME_SYSTEM":"UTC","OBJECT_NAME":"STARLINK-3456","OBJECT_TYPE":"PAYLOAD","LAUNCH_DATE":"2022-02-21","INCLINATION":"53.2169","CLASSIFICATION_TYPE":"U","ELEMENT_SET_NO":"999","EPHEMERIS_TYPE":"0","REF_FRAME":"TEME","PERIOD":"95.438","TLE_LINE1":"1 51759U 22016AX  23165.88893285 -.00000443  00000-0 -97551-5 0  9991","GP_ID":"233946443","OBJECT_ID":"2022-016AX","CENTER_NAME":"EARTH","DECAY_DATE":null,"MEAN_MOTION_DDOT":"0.0000000000000","MEAN_ANOMALY":"271.3285","TLE_LINE2":"2 51759  53.2169 112.9094 0001094  88.7833 271.3285 15.08828183 72924","MEAN_ELEMENT_THEORY":"SGP4","MEAN_MOTION_DOT":"-0.00000443","SEMIMAJOR_AXIS":"6917.917","BSTAR":"-0.00000975510000","ECCENTRICITY":"0.00010940","REV_AT_EPOCH":"7292","NORAD_CAT_ID":"51759","RCS_SIZE":"LARGE","ARG_OF_PERICENTER":"88.7833","EPOCH":"2023-06-14T21:20:03.798240","MEAN_MOTION":"15.08828183","APOAPSIS":"540.538","FILE":"3933215","COUNTRY_CODE":"US"},{"COUNTRY_CODE":"US","FILE":"3932965","APOAPSIS":"540.551","MEAN_MOTION":"15.08841544","EPOCH":"2023-06-14T07:45:17.921376","ARG_OF_PERICENTER":"88.4432","NORAD_CAT_ID":"51768","RCS_SIZE":"LARGE","REV_AT_EPOCH":"7317","ECCENTRICITY":"0.00011710","BSTAR":"0.00001026500000","SEMIMAJOR_AXIS":"6917.876","MEAN_MOTION_DOT":"-0.00000124","MEAN_ELEMENT_THEORY":"SGP4","TLE_LINE2":"2 51768  53.2164 145.4504 0001171  88.4432 271.6694 15.08841544 73175","MEAN_ANOMALY":"271.6694","MEAN_MOTION_DDOT":"0.0000000000000","DECAY_DATE":null,"CENTER_NAME":"EARTH","GP_ID":"233914068","OBJECT_ID":"2022-017A","TLE_LINE1":"1 51768U 22017A   23165.32312409 -.00000124  00000-0  10265-4 0  9996","PERIOD":"95.437","REF_FRAME":"TEME","EPHEMERIS_TYPE":"0","CLASSIFICATION_TYPE":"U","ELEMENT_SET_NO":"999","LAUNCH_DATE":"2022-02-25","OBJECT_TYPE":"PAYLOAD","INCLINATION":"53.2164","OBJECT_NAME":"STARLINK-3622","TIME_SYSTEM":"UTC","PERIAPSIS":"538.931","SITE":"AFWTR","RA_OF_ASC_NODE":"145.4504"},{"PERIAPSIS":"538.875","TIME_SYSTEM":"UTC","OBJECT_NAME":"STARLINK-3621","RA_OF_ASC_NODE":"143.9934","SITE":"AFWTR","EPHEMERIS_TYPE":"0","REF_FRAME":"TEME","OBJECT_TYPE":"PAYLOAD","LAUNCH_DATE":"2022-02-25","INCLINATION":"53.2165","CLASSIFICATION_TYPE":"U","ELEMENT_SET_NO":"999","GP_ID":"233947445","OBJECT_ID":"2022-017B","CENTER_NAME":"EARTH","DECAY_DATE":null,"PERIOD":"95.438","TLE_LINE1":"1 51769U 22017B   23165.64696459  .00000968  00000-0  78900-4 0  9997","MEAN_MOTION_DDOT":"0.0000000000000","MEAN_ANOMALY":"270.3724","BSTAR":"0.00007890000000","ECCENTRICITY":"0.00013040","TLE_LINE2":"2 51769  53.2165 143.9934 0001304  89.7417 270.3724 15.08829766 71789","MEAN_ELEMENT_THEORY":"SGP4","MEAN_MOTION_DOT":"0.00000968","SEMIMAJOR_AXIS":"6917.912","REV_AT_EPOCH":"7178","RCS_SIZE":"LARGE","NORAD_CAT_ID":"51769","MEAN_MOTION":"15.08829766","FILE":"3933215","APOAPSIS":"540.679","COUNTRY_CODE":"US","ARG_OF_PERICENTER":"89.7417","EPOCH":"2023-06-14T15:31:37.740576"},{"MEAN_ANOMALY":"265.7713","MEAN_MOTION_DDOT":"0.0000000000000","BSTAR":"0.00003427100000","ECCENTRICITY":"0.00011490","MEAN_MOTION_DOT":"0.00000258","SEMIMAJOR_AXIS":"6917.895","TLE_LINE2":"2 51770  53.2158 143.9804 0001149  94.3411 265.7713 15.08835202 71791","MEAN_ELEMENT_THEORY":"SGP4","RCS_SIZE":"LARGE","NORAD_CAT_ID":"51770","REV_AT_EPOCH":"7179","COUNTRY_CODE":"US","MEAN_MOTION":"15.08835202","FILE":"3933215","APOAPSIS":"540.555","ARG_OF_PERICENTER":"94.3411","EPOCH":"2023-06-14T15:36:55.877472","TIME_SYSTEM":"UTC","OBJECT_NAME":"STARLINK-3612","PERIAPSIS":"538.965","SITE":"AFWTR","RA_OF_ASC_NODE":"143.9804","REF_FRAME":"TEME","EPHEMERIS_TYPE":"0","ELEMENT_SET_NO":"999","CLASSIFICATION_TYPE":"U","OBJECT_TYPE":"PAYLOAD","LAUNCH_DATE":"2022-02-25","INCLINATION":"53.2158","DECAY_DATE":null,"OBJECT_ID":"2022-017C","GP_ID":"233948195","CENTER_NAME":"EARTH","TLE_LINE1":"1 51770U 22017C   23165.65064673  .00000258  00000-0  34271-4 0  9992","PERIOD":"95.438"}];
